{"type": "FeatureCollection", "features": [ {"type": "Feature", "properties": {"norad_id": 39620, "name": "COSMOS 2492 (754)", "group": "gnss", "lat": -63.98218860307196, "lon": -109.78155708654992, "alt_km": 19106.37058755521, "timestamp": "2025-12-22T18:58:53.676459+00:00", "meta": {"OBJECT_NAME": "COSMOS 2492 (754)", "OBJECT_ID": "2014-012A", "EPOCH": "2025-12-21T22:59:34.433088", "MEAN_MOTION": 2.13103396, "ECCENTRICITY": 0.00142426, "INCLINATION": 65.4026, "RA_OF_ASC_NODE": 319.9579, "ARG_OF_PERICENTER": 313.3292, "MEAN_ANOMALY": 46.5466, "EPHEMERIS_TYPE": 0, "CLASSIFICATION_TYPE": "U", "NORAD_CAT_ID": 39620, "ELEMENT_SET_NO": 999, "REV_AT_EPOCH": 9146, "BSTAR": 0, "MEAN_MOTION_DOT": -4.2e-07, "MEAN_MOTION_DDOT": 0}, "tle": {"line1": "1 39620U 14012A   25355.95803742 -.00000042  00000+0  00000+0 0  9991", "line2": "2 39620  65.4026 319.9579 0014242 313.3292  46.5466  2.13103396 91463"}}, "geometry": {"type": "Point", "coordinates": [-109.78155708654992, -63.98218860307196]}}, {"type": "Feature", "properties": {"norad_id": 39635, "name": "IRNSS-1B", "group": "gnss", "lat": -3.8759763073257485, "lon": 70.44147562268579, "alt_km": 35710.50354774866, "timestamp": "2025-12-22T18:58:53.676471+00:00", "meta": {"OBJECT_NAME": "IRNSS-1B", "OBJECT_ID": "2014-017A", "EPOCH": "2025-12-21T18:32:21.878016", "MEAN_MOTION": 1.00271154, "ECCENTRICITY": 0.00185297, "INCLINATION": 29.2394, "RA_OF_ASC_NODE": 243.439, "ARG_OF_PERICENTER": 175.0661, "MEAN_ANOMALY": 5.3106, "EPHEMERIS_TYPE": 0, "CLASSIFICATION_TYPE": "U", "NORAD_CAT_ID": 39635, "ELEMENT_SET_NO": 999, "REV_AT_EPOCH": 4301, "BSTAR": 0, "MEAN_MOTION_DOT": 1.51e-06, "MEAN_MOTION_DDOT": 0}, "tle": {"line1": "1 39635U 14017A   25355.77247544  .00000151  00000+0  00000+0 0  9994", "line2": "2 39635  29.2394 243.4390 0018529 175.0661   5.3106  1.00271154 43017"}}, "geometry": {"type": "Point", "coordinates": [70.44147562268579, -3.8759763073257485]}}, {"type": "Feature", "properties": {"norad_id": 39727, "name": "LUCH 5V (SDCM/PRN 141)", "group": "gnss", "lat": 3.011775884210852, "lon": 110.92767026825018, "alt_km": 35800.28432233889, "timestamp": "2025-12-22T18:58:53.676485+00:00", "meta": {"OBJECT_NAME": "LUCH 5V (SDCM/PRN 141)", "OBJECT_ID": "2014-023A", "EPOCH": "2025-12-22T06:45:59.885568", "MEAN_MOTION": 1.00275503, "ECCENTRICITY": 0.00036992, "INCLINATION": 4.6926, "RA_OF_ASC_NODE": 71.4597, "ARG_OF_PERICENTER": 213.4787, "MEAN_ANOMALY": 2.3604, "EPHEMERIS_TYPE": 0, "CLASSIFICATION_TYPE": "U", "NORAD_CAT_ID": 39727, "ELEMENT_SET_NO": 999, "REV_AT_EPOCH": 4258, "BSTAR": 0, "MEAN_MOTION_DOT": -2.5e-06, "MEAN_MOTION_DDOT": 0}, "tle": {"line1": "1 39727U 14023A   25356.28194312 -.00000250  00000+0  00000+0 0  9995", "line2": "2 39727   4.6926  71.4597 0003699 213.4787   2.3604  1.00275503 42586"}}, "geometry": {"type": "Point", "coordinates": [110.92767026825018, 3.011775884210852]}}, {"type": "Feature", "properties": {"norad_id": 39741, "name": "GPS BIIF-6  (PRN 06)", "group": "gnss", "lat": -42.553334642863, "lon": -164.32317912607115, "alt_km": 20177.927253335714, "timestamp": "2025-12-22T18:58:53.676497+00:00", "meta": {"OBJECT_NAME": "GPS BIIF-6  (PRN 06)", "OBJECT_ID": "2014-026A", "EPOCH": "2025-12-21T23:12:34.799616", "MEAN_MOTION": 2.00560759, "ECCENTRICITY": 0.00394103, "INCLINATION": 56.58, "RA_OF_ASC_NODE": 338.4177, "ARG_OF_PERICENTER": 319.2097, "MEAN_ANOMALY": 40.4995, "EPHEMERIS_TYPE": 0, "CLASSIFICATION_TYPE": "U", "NORAD_CAT_ID": 39741, "ELEMENT_SET_NO": 999, "REV_AT_EPOCH": 8498, "BSTAR": 0, "MEAN_MOTION_DOT": -6.8e-07, "MEAN_MOTION_DDOT": 0}, "tle": {"line1": "1 39741U 14026A   25355.96706944 -.00000068  00000+0  00000+0 0  9995", "line2": "2 39741  56.5800 338.4177 0039410 319.2097  40.4995  2.00560759 84985"}}, "geometry": {"type": "Point", "coordinates": [-164.32317912607115, -42.553334642863]}}, {"type": "Feature", "properties": {"norad_id": 40001, "name": "COSMOS 2500 (755)", "group": "gnss", "lat": 29.798476865961177, "lon": 124.42945879972194, "alt_km": 19120.273177139283, "timestamp": "2025-12-22T18:58:53.676508+00:00", "meta": {"OBJECT_NAME": "COSMOS 2500 (755)", "OBJECT_ID": "2014-032A", "EPOCH": "2025-12-21T04:35:55.026240", "MEAN_MOTION": 2.13106227, "ECCENTRICITY": 0.00077299, "INCLINATION": 65.3386, "RA_OF_ASC_NODE": 319.7453, "ARG_OF_PERICENTER": 219.3736, "MEAN_ANOMALY": 140.5635, "EPHEMERIS_TYPE": 0, "CLASSIFICATION_TYPE": "U", "NORAD_CAT_ID": 40001, "ELEMENT_SET_NO": 999, "REV_AT_EPOCH": 8966, "BSTAR": 0, "MEAN_MOTION_DOT": -4.7e-07, "MEAN_MOTION_DDOT": 0}, "tle": {"line1": "1 40001U 14032A   25355.19160910 -.00000047  00000+0  00000+0 0  9992", "line2": "2 40001  65.3386 319.7453 0007729 219.3736 140.5635  2.13106227 89663"}}, "geometry": {"type": "Point", "coordinates": [124.42945879972194, 29.798476865961177]}}, {"type": "Feature", "properties": {"norad_id": 40105, "name": "GPS BIIF-7  (PRN 09)", "group": "gnss", "lat": 5.936084658160394, "lon": -88.63285279675146, "alt_km": 20128.34846140692, "timestamp": "2025-12-22T18:58:53.676522+00:00", "meta": {"OBJECT_NAME": "GPS BIIF-7  (PRN 09)", "OBJECT_ID": "2014-045A", "EPOCH": "2025-12-21T13:19:50.037600", "MEAN_MOTION": 2.00573131, "ECCENTRICITY": 0.00324633, "INCLINATION": 55.2342, "RA_OF_ASC_NODE": 95.5472, "ARG_OF_PERICENTER": 120.1198, "MEAN_ANOMALY": 240.2018, "EPHEMERIS_TYPE": 0, "CLASSIFICATION_TYPE": "U", "NORAD_CAT_ID": 40105, "ELEMENT_SET_NO": 999, "REV_AT_EPOCH": 8251, "BSTAR": 0, "MEAN_MOTION_DOT": -7e-08, "MEAN_MOTION_DDOT": 0}, "tle": {"line1": "1 40105U 14045A   25355.55544025 -.00000007  00000+0  00000+0 0  9990", "line2": "2 40105  55.2342  95.5472 0032463 120.1198 240.2018  2.00573131 82510"}}, "geometry": {"type": "Point", "coordinates": [-88.63285279675146, 5.936084658160394]}}, {"type": "Feature", "properties": {"norad_id": 40128, "name": "GSAT0201 (GALILEO 5)", "group": "gnss", "lat": 49.03432429830869, "lon": 14.245283497523248, "alt_km": 20091.74149587076, "timestamp": "2025-12-22T18:58:53.676536+00:00", "meta": {"OBJECT_NAME": "GSAT0201 (GALILEO 5)", "OBJECT_ID": "2014-050A", "EPOCH": "2025-12-22T02:10:25.077792", "MEAN_MOTION": 1.85519674, "ECCENTRICITY": 0.16488719, "INCLINATION": 49.0659, "RA_OF_ASC_NODE": 280.6824, "ARG_OF_PERICENTER": 172.6344, "MEAN_ANOMALY": 190.1824, "EPHEMERIS_TYPE": 0, "CLASSIFICATION_TYPE": "U", "NORAD_CAT_ID": 40128, "ELEMENT_SET_NO": 999, "REV_AT_EPOCH": 7503, "BSTAR": 0, "MEAN_MOTION_DOT": -3.7e-07, "MEAN_MOTION_DDOT": 0}, "tle": {"line1": "1 40128U 14050A   25356.09056803 -.00000037  00000+0  00000+0 0  9996", "line2": "2 40128  49.0659 280.6824 1648871 172.6344 190.1824  1.85519674 75038"}}, "geometry": {"type": "Point", "coordinates": [14.245283497523248, 49.03432429830869]}}, {"type": "Feature", "properties": {"norad_id": 40129, "name": "GSAT0202 (GALILEO 6)", "group": "gnss", "lat": -33.737783972533755, "lon": -115.6074463356755, "alt_km": 24740.163718230688, "timestamp": "2025-12-22T18:58:53.676547+00:00", "meta": {"OBJECT_NAME": "GSAT0202 (GALILEO 6)", "OBJECT_ID": "2014-050B", "EPOCH": "2025-12-18T13:46:22.484640", "MEAN_MOTION": 1.85520466, "ECCENTRICITY": 0.16491259, "INCLINATION": 49.0858, "RA_OF_ASC_NODE": 279.9095, "ARG_OF_PERICENTER": 173.2442, "MEAN_ANOMALY": 189.3393, "EPHEMERIS_TYPE": 0, "CLASSIFICATION_TYPE": "U", "NORAD_CAT_ID": 40129, "ELEMENT_SET_NO": 999, "REV_AT_EPOCH": 7713, "BSTAR": 0, "MEAN_MOTION_DOT": -5.9e-07, "MEAN_MOTION_DDOT": 0}, "tle": {"line1": "1 40129U 14050B   25352.57387135 -.00000059  00000+0  00000+0 0  9995", "line2": "2 40129  49.0858 279.9095 1649125 173.2442 189.3393  1.85520466 77135"}}, "geometry": {"type": "Point", "coordinates": [-115.6074463356755, -33.737783972533755]}}, {"type": "Feature", "properties": {"norad_id": 40269, "name": "IRNSS-1C", "group": "gnss", "lat": 0.7543958953018021, "lon": 99.29611148562755, "alt_km": 35709.30759664856, "timestamp": "2025-12-22T18:58:53.676559+00:00", "meta": {"OBJECT_NAME": "IRNSS-1C", "OBJECT_ID": "2014-061A", "EPOCH": "2025-12-21T20:26:22.071840", "MEAN_MOTION": 1.00273766, "ECCENTRICITY": 0.00180674, "INCLINATION": 6.0649, "RA_OF_ASC_NODE": 92.4391, "ARG_OF_PERICENTER": 1.1399, "MEAN_ANOMALY": 26.6733, "EPHEMERIS_TYPE": 0, "CLASSIFICATION_TYPE": "U", "NORAD_CAT_ID": 40269, "ELEMENT_SET_NO": 999, "REV_AT_EPOCH": 4091, "BSTAR": 0, "MEAN_MOTION_DOT": -1.44e-06, "MEAN_MOTION_DDOT": 0}, "tle": {"line1": "1 40269U 14061A   25355.85164435 -.00000144  00000+0  00000+0 0  9997", "line2": "2 40269   6.0649  92.4391 0018067   1.1399  26.6733  1.00273766 40914"}}, "geometry": {"type": "Point", "coordinates": [99.29611148562755, 0.7543958953018021]}}, {"type": "Feature", "properties": {"norad_id": 40294, "name": "GPS BIIF-8  (PRN 03)", "group": "gnss", "lat": -55.674888255808504, "lon": -69.25588881156277, "alt_km": 20346.61186778071, "timestamp": "2025-12-22T18:58:53.676585+00:00", "meta": {"OBJECT_NAME": "GPS BIIF-8  (PRN 03)", "OBJECT_ID": "2014-068A", "EPOCH": "2025-12-21T10:24:33.832224", "MEAN_MOTION": 2.00565456, "ECCENTRICITY": 0.00608151, "INCLINATION": 56.8641, "RA_OF_ASC_NODE": 37.8098, "ARG_OF_PERICENTER": 69.0115, "MEAN_ANOMALY": 291.7086, "EPHEMERIS_TYPE": 0, "CLASSIFICATION_TYPE": "U", "NORAD_CAT_ID": 40294, "ELEMENT_SET_NO": 999, "REV_AT_EPOCH": 8164, "BSTAR": 0, "MEAN_MOTION_DOT": -5.2e-07, "MEAN_MOTION_DDOT": 0}, "tle": {"line1": "1 40294U 14068A   25355.43372491 -.00000052  00000+0  00000+0 0  9997", "line2": "2 40294  56.8641  37.8098 0060815  69.0115 291.7086  2.00565456 81643"}}, "geometry": {"type": "Point", "coordinates": [-69.25588881156277, -55.674888255808504]}}]}